[{"OBJECT_NAME":"ONEWEB-0615","OBJECT_ID":"2022-166AL","EPOCH":"2025-08-13T11:17:07.390752","MEAN_MOTION":13.21828186,"ECCENTRICITY":0.0002013,"INCLINATION":87.926,"RA_OF_ASC_NODE":305.3884,"ARG_OF_PERICENTER":97.619,"MEAN_ANOMALY":262.5173,"EPHEMERIS_TYPE":0,"CLASSIFICATION_TYPE":"U","NORAD_CAT_ID":54676,"ELEMENT_SET_NO":999,"REV_AT_EPOCH":13079,"BSTAR":0.00021203,"MEAN_MOTION_DOT":1.01e-6,"MEAN_MOTION_DDOT":0},{"OBJECT_NAME":"ONEWEB-0655","OBJECT_ID":"2022-166AM","EPOCH":"2025-08-13T14:16:33.432960","MEAN_MOTION":13.21825671,"ECCENTRICITY":0.0002322,"INCLINATION":87.9261,"RA_OF_ASC_NODE":305.3686,"ARG_OF_PERICENTER":94.2302,"MEAN_ANOMALY":265.9097,"EPHEMERIS_TYPE":0,"CLASSIFICATION_TYPE":"U","NORAD_CAT_ID":54677,"ELEMENT_SET_NO":999,"REV_AT_EPOCH":13080,"BSTAR":7.0911e-5,"MEAN_MOTION_DOT":4.2e-7,"MEAN_MOTION_DDOT":0},{"OBJECT_NAME":"ONEWEB-0659","OBJECT_ID":"2022-166AN","EPOCH":"2025-08-13T11:03:30.934944","MEAN_MOTION":13.21827063,"ECCENTRICITY":0.0001853,"INCLINATION":87.9259,"RA_OF_ASC_NODE":305.3963,"ARG_OF_PERICENTER":98.927,"MEAN_ANOMALY":261.2074,"EPHEMERIS_TYPE":0,"CLASSIFICATION_TYPE":"U","NORAD_CAT_ID":54678,"ELEMENT_SET_NO":999,"REV_AT_EPOCH":13087,"BSTAR":0.00018023,"MEAN_MOTION_DOT":8.7e-7,"MEAN_MOTION_DDOT":0},{"OBJECT_NAME":"ONEWEB-0685","OBJECT_ID":"2022-166AP","EPOCH":"2025-08-13T11:05:46.728960","MEAN_MOTION":13.21834727,"ECCENTRICITY":0.0002261,"INCLINATION":87.926,"RA_OF_ASC_NODE":305.3915,"ARG_OF_PERICENTER":101.7201,"MEAN_ANOMALY":258.4187,"EPHEMERIS_TYPE":0,"CLASSIFICATION_TYPE":"U","NORAD_CAT_ID":54679,"ELEMENT_SET_NO":999,"REV_AT_EPOCH":13076,"BSTAR":-0.00015149,"MEAN_MOTION_DOT":-5.0e-7,"MEAN_MOTION_DDOT":0},{"OBJECT_NAME":"ONEWEB-0712","OBJECT_ID":"2022-166AQ","EPOCH":"2025-08-13T13:49:53.911488","MEAN_MOTION":13.1659332,"ECCENTRICITY":0.0002405,"INCLINATION":87.9034,"RA_OF_ASC_NODE":290.0795,"ARG_OF_PERICENTER":85.8088,"MEAN_ANOMALY":274.3317,"EPHEMERIS_TYPE":0,"CLASSIFICATION_TYPE":"U","NORAD_CAT_ID":54680,"ELEMENT_SET_NO":999,"REV_AT_EPOCH":13158,"BSTAR":-0.00016159,"MEAN_MOTION_DOT":-4.9e-7,"MEAN_MOTION_DDOT":0},{"OBJECT_NAME":"ONEWEB-0714","OBJECT_ID":"2022-166AR","EPOCH":"2025-08-13T11:14:51.769536","MEAN_MOTION":13.21827534,"ECCENTRICITY":0.0002232,"INCLINATION":87.9261,"RA_OF_ASC_NODE":305.3833,"ARG_OF_PERICENTER":99.2951,"MEAN_ANOMALY":260.8436,"EPHEMERIS_TYPE":0,"CLASSIFICATION_TYPE":"U","NORAD_CAT_ID":54681,"ELEMENT_SET_NO":999,"REV_AT_EPOCH":13088,"BSTAR":2.9633e-5,"MEAN_MOTION_DOT":2.5e-7,"MEAN_MOTION_DDOT":0},{"OBJECT_NAME":"ONEWEB-0532","OBJECT_ID":"2023-004A","EPOCH":"2025-08-13T13:37:35.868864","MEAN_MOTION":13.1765117,"ECCENTRICITY":0.000165,"INCLINATION":87.9031,"RA_OF_ASC_NODE":67.0724,"ARG_OF_PERICENTER":100.2934,"MEAN_ANOMALY":259.8383,"EPHEMERIS_TYPE":0,"CLASSIFICATION_TYPE":"U","NORAD_CAT_ID":55140,"ELEMENT_SET_NO":999,"REV_AT_EPOCH":12707,"BSTAR":-4.0638e-5,"MEAN_MOTION_DOT":-3.0e-8,"MEAN_MOTION_DDOT":0},{"OBJECT_NAME":"ONEWEB-0533","OBJECT_ID":"2023-004B","EPOCH":"2025-08-13T12:51:08.489088","MEAN_MOTION":13.12441217,"ECCENTRICITY":0.0001983,"INCLINATION":87.8859,"RA_OF_ASC_NODE":51.8105,"ARG_OF_PERICENTER":90.1062,"MEAN_ANOMALY":270.0294,"EPHEMERIS_TYPE":0,"CLASSIFICATION_TYPE":"U","NORAD_CAT_ID":55141,"ELEMENT_SET_NO":999,"REV_AT_EPOCH":12770,"BSTAR":-0.00067421,"MEAN_MOTION_DOT":-2.3e-6,"MEAN_MOTION_DDOT":0},{"OBJECT_NAME":"ONEWEB-0541","OBJECT_ID":"2023-004C","EPOCH":"2025-08-13T13:17:21.454656","MEAN_MOTION":13.11417171,"ECCENTRICITY":0.0001552,"INCLINATION":87.8794,"RA_OF_ASC_NODE":82.3574,"ARG_OF_PERICENTER":83.0894,"MEAN_ANOMALY":277.041,"EPHEMERIS_TYPE":0,"CLASSIFICATION_TYPE":"U","NORAD_CAT_ID":55142,"ELEMENT_SET_NO":999,"REV_AT_EPOCH":12562,"BSTAR":-0.00164,"MEAN_MOTION_DOT":-5.69e-6,"MEAN_MOTION_DDOT":0},{"OBJECT_NAME":"ONEWEB-0543","OBJECT_ID":"2023-004D","EPOCH":"2025-08-13T11:37:49.497888","MEAN_MOTION":13.18685785,"ECCENTRICITY":0.0002,"INCLINATION":87.9122,"RA_OF_ASC_NODE":36.6287,"ARG_OF_PERICENTER":85.2552,"MEAN_ANOMALY":274.8809,"EPHEMERIS_TYPE":0,"CLASSIFICATION_TYPE":"U","NORAD_CAT_ID":55143,"ELEMENT_SET_NO":999,"REV_AT_EPOCH":12914,"BSTAR":-1.8669e-6,"MEAN_MOTION_DOT":1.2e-7,"MEAN_MOTION_DDOT":0},{"OBJECT_NAME":"ONEWEB-0544","OBJECT_ID":"2023-004E","EPOCH":"2025-08-13T13:17:34.991808","MEAN_MOTION":13.1868547,"ECCENTRICITY":0.0001721,"INCLINATION":87.9122,"RA_OF_ASC_NODE":36.6053,"ARG_OF_PERICENTER":83.8344,"MEAN_ANOMALY":276.2984,"EPHEMERIS_TYPE":0,"CLASSIFICATION_TYPE":"U","NORAD_CAT_ID":55144,"ELEMENT_SET_NO":999,"REV_AT_EPOCH":12915,"BSTAR":-0.00026798,"MEAN_MOTION_DOT":-9.3e-7,"MEAN_MOTION_DDOT":0},{"OBJECT_NAME":"ONEWEB-0560","OBJECT_ID":"2023-004F","EPOCH":"2025-08-13T11:18:49.658976","MEAN_MOTION":13.18685765,"ECCENTRICITY":0.0001706,"INCLINATION":87.9129,"RA_OF_ASC_NODE":36.5979,"ARG_OF_PERICENTER":82.4268,"MEAN_ANOMALY":277.7058,"EPHEMERIS_TYPE":0,"CLASSIFICATION_TYPE":"U","NORAD_CAT_ID":55145,"ELEMENT_SET_NO":999,"REV_AT_EPOCH":12915,"BSTAR":8.9274e-5,"MEAN_MOTION_DOT":4.8e-7,"MEAN_MOTION_DDOT":0},{"OBJECT_NAME":"ONEWEB-0565","OBJECT_ID":"2023-004G","EPOCH":"2025-08-13T11:09:18.729504","MEAN_MOTION":13.18687617,"ECCENTRICITY":0.0001272,"INCLINATION":87.9121,"RA_OF_ASC_NODE":36.6555,"ARG_OF_PERICENTER":94.1108,"MEAN_ANOMALY":266.0169,"EPHEMERIS_TYPE":0,"CLASSIFICATION_TYPE":"U","NORAD_CAT_ID":55146,"ELEMENT_SET_NO":999,"REV_AT_EPOCH":12914,"BSTAR":-1.7114e-6,"MEAN_MOTION_DOT":1.2e-7,"MEAN_MOTION_DDOT":0},{"OBJECT_NAME":"ONEWEB-0567","OBJECT_ID":"2023-004H","EPOCH":"2025-08-13T10:59:48.873120","MEAN_MOTION":13.18687747,"ECCENTRICITY":0.0001454,"INCLINATION":87.9125,"RA_OF_ASC_NODE":36.6152,"ARG_OF_PERICENTER":85.8098,"MEAN_ANOMALY":274.32,"EPHEMERIS_TYPE":0,"CLASSIFICATION_TYPE":"U","NORAD_CAT_ID":55147,"ELEMENT_SET_NO":999,"REV_AT_EPOCH":12914,"BSTAR":5.1748e-5,"MEAN_MOTION_DOT":3.3e-7,"MEAN_MOTION_DDOT":0},{"OBJECT_NAME":"ONEWEB-0569","OBJECT_ID":"2023-004J","EPOCH":"2025-08-13T11:30:00.573984","MEAN_MOTION":13.13471047,"ECCENTRICITY":0.0001326,"INCLINATION":87.8986,"RA_OF_ASC_NODE":21.3287,"ARG_OF_PERICENTER":60.5835,"MEAN_ANOMALY":299.5426,"EPHEMERIS_TYPE":0,"CLASSIFICATION_TYPE":"U","NORAD_CAT_ID":55148,"ELEMENT_SET_NO":999,"REV_AT_EPOCH":12978,"BSTAR":-6.2014e-5,"MEAN_MOTION_DOT":-1.0e-7,"MEAN_MOTION_DDOT":0},{"OBJECT_NAME":"ONEWEB-0570","OBJECT_ID":"2023-004K","EPOCH":"2025-08-13T12:34:49.843200","MEAN_MOTION":13.18685228,"ECCENTRICITY":0.0001531,"INCLINATION":87.9124,"RA_OF_ASC_NODE":36.6039,"ARG_OF_PERICENTER":109.7088,"MEAN_ANOMALY":250.4209,"EPHEMERIS_TYPE":0,"CLASSIFICATION_TYPE":"U","NORAD_CAT_ID":55149,"ELEMENT_SET_NO":999,"REV_AT_EPOCH":12914,"BSTAR":6.9553e-5,"MEAN_MOTION_DOT":4.0e-7,"MEAN_MOTION_DDOT":0},{"OBJECT_NAME":"ONEWEB-0571","OBJECT_ID":"2023-004L","EPOCH":"2025-08-13T12:25:18.537888","MEAN_MOTION":13.18687356,"ECCENTRICITY":6.83e-5,"INCLINATION":87.9119,"RA_OF_ASC_NODE":36.611,"ARG_OF_PERICENTER":61.2398,"MEAN_ANOMALY":298.8802,"EPHEMERIS_TYPE":0,"CLASSIFICATION_TYPE":"U","NORAD_CAT_ID":55150,"ELEMENT_SET_NO":999,"REV_AT_EPOCH":12915,"BSTAR":0.00013171,"MEAN_MOTION_DOT":6.5e-7,"MEAN_MOTION_DDOT":0}]
