ONEWEB-0615             
1 54676U 22166AL  25225.47022443  .00000101  00000+0  21203-3 0  9999
2 54676  87.9260 305.3884 0002013  97.6190 262.5173 13.21828186130797
ONEWEB-0655             
1 54677U 22166AM  25225.59483140  .00000042  00000+0  70911-4 0  9993
2 54677  87.9261 305.3686 0002322  94.2302 265.9097 13.21825671130800
ONEWEB-0659             
1 54678U 22166AN  25225.46077471  .00000087  00000+0  18023-3 0  9990
2 54678  87.9259 305.3963 0001853  98.9270 261.2074 13.21827063130877
ONEWEB-0685             
1 54679U 22166AP  25225.46234640 -.00000050  00000+0 -15149-3 0  9992
2 54679  87.9260 305.3915 0002261 101.7201 258.4187 13.21834727130764
ONEWEB-0712             
1 54680U 22166AQ  25225.57631842 -.00000049  00000+0 -16159-3 0  9991
2 54680  87.9034 290.0795 0002405  85.8088 274.3317 13.16593320131584
ONEWEB-0714             
1 54681U 22166AR  25225.46865474  .00000025  00000+0  29633-4 0  9994
2 54681  87.9261 305.3833 0002232  99.2951 260.8436 13.21827534130883
ONEWEB-0532             
1 55140U 23004A   25225.56777626 -.00000003  00000+0 -40638-4 0  9995
2 55140  87.9031  67.0724 0001650 100.2934 259.8383 13.17651170127079
ONEWEB-0533             
1 55141U 23004B   25225.53551492 -.00000230  00000+0 -67421-3 0  9994
2 55141  87.8859  51.8105 0001983  90.1062 270.0294 13.12441217127709
ONEWEB-0541             
1 55142U 23004C   25225.55372054 -.00000569  00000+0 -16400-2 0  9997
2 55142  87.8794  82.3574 0001552  83.0894 277.0410 13.11417171125620
ONEWEB-0543             
1 55143U 23004D   25225.48460067  .00000012  00000+0 -18669-5 0  9996
2 55143  87.9122  36.6287 0002000  85.2552 274.8809 13.18685785129147
ONEWEB-0544             
1 55144U 23004E   25225.55387722 -.00000093  00000+0 -26798-3 0  9991
2 55144  87.9122  36.6053 0001721  83.8344 276.2984 13.18685470129153
ONEWEB-0560             
1 55145U 23004F   25225.47140809  .00000048  00000+0  89274-4 0  9993
2 55145  87.9129  36.5979 0001706  82.4268 277.7058 13.18685765129155
ONEWEB-0565             
1 55146U 23004G   25225.46480011  .00000012  00000+0 -17114-5 0  9992
2 55146  87.9121  36.6555 0001272  94.1108 266.0169 13.18687617129141
ONEWEB-0567             
1 55147U 23004H   25225.45820455  .00000033  00000+0  51748-4 0  9994
2 55147  87.9125  36.6152 0001454  85.8098 274.3200 13.18687747129148
ONEWEB-0569             
1 55148U 23004J   25225.47917331 -.00000010  00000+0 -62014-4 0  9992
2 55148  87.8986  21.3287 0001326  60.5835 299.5426 13.13471047129788
ONEWEB-0570             
1 55149U 23004K   25225.52418800  .00000040  00000+0  69553-4 0  9992
2 55149  87.9124  36.6039 0001531 109.7088 250.4209 13.18685228129140
ONEWEB-0571             
1 55150U 23004L   25225.51757567  .00000065  00000+0  13171-3 0  9990
2 55150  87.9119  36.6110 0000683  61.2398 298.8802 13.18687356129159
